GLOBALSTAR M094         
1 39074U 13005C   23321.76688186 -.00000113  00000+0 -50902-4 0  9999
2 39074  51.9933 140.1915 0001230  95.1872 264.9135 12.62269948499476
GLOBALSTAR M096         
1 39075U 13005D   23321.06746415 -.00000081  00000+0  12715-3 0  9995
2 39075  52.0060 190.3858 0001349  77.5108 282.5910 12.62266399498282
GLOBALSTAR M078         
1 39076U 13005E   23321.59519592 -.00000002  00000+0  56707-3 0  9990
2 39076  51.9876 274.0721 0001201   8.9033 351.1855 12.62264136496979
GLOBALSTAR M095         
1 39077U 13005F   23321.54251705 -.00000085  00000+0  10482-3 0  9996
2 39077  51.9802 271.7171 0001229  36.3022 323.7928 12.62270654496827
GLOBALSTAR M087         
1 52888U 22064A   23321.44633576 -.00000071  00000+0  10890-3 0  9993
2 52888  51.9757 230.1889 0009155 180.0032 180.0870 13.37558206 69056
